NORAD_CAT_ID,OBJECT_NAME,OBJECT_TYPE,EPOCH,MEAN_MOTION,ECCENTRICITY,INCLINATION,RA_OF_ASC_NODE,ARG_OF_PERICENTER,MEAN_ANOMALY,BSTAR,MEAN_MOTION_DOT,MEAN_MOTION_DDOT,TLE_LINE0,TLE_LINE1,TLE_LINE2,SEMIMAJOR_AXIS,PERIOD,APOGEE,PERIGEE,DECAYED
49417.0,STARLINK-3154,PAYLOAD,2024-04-20 02:28:27,15.08855512,0.000159,53.218,69.9569,82.2136,277.9036,0.00030918,4.638e-05,0.0,0 STARLINK-3154,1 49417U 21104K   24111.10309614  .00004638  00000-0  30918-3 0  9991,2 49417  53.2180  69.9569 0001590  82.2136 277.9036 15.08855512134818,6917.833,95.437,540.798,538.598,0.0
49417.0,STARLINK-3154,PAYLOAD,2024-04-20 19:57:41,15.088538,0.000167,53.219,66.6964,96.8018,263.3164,9.2634e-05,1.187e-05,0.0,0 STARLINK-3154,1 49417U 21104K   24111.83173109  .00001187  00000-0  92634-4 0  9999,2 49417  53.2190  66.6964 0001670  96.8018 263.3164 15.08853800136036,6917.838,95.437,540.858,538.548,0.0
49417.0,STARLINK-3154,PAYLOAD,2024-04-21 03:54:38,15.08815977,0.0001301,53.2176,65.1943,99.9412,260.1727,-0.00038093,-6.341e-05,0.0,0 STARLINK-3154,1 49417U 21104K   24112.16295130 -.00006341  00000-0 -38093-3 0  9992,2 49417  53.2176  65.1943 0001301  99.9412 260.1727 15.08815977136082,6917.954,95.439,540.719,538.919,0.0
49417.0,STARLINK-3154,PAYLOAD,2024-04-21 07:05:25,15.08820086,0.0001298,53.2175,64.607,118.1852,241.9271,-0.00034147,-5.715e-05,0.0,0 STARLINK-3154,1 49417U 21104K   24112.29543056 -.00005715  00000-0 -34147-3 0  9999,2 49417  53.2175  64.6070 0001298 118.1852 241.9271 15.08820086134999,6917.941,95.439,540.704,538.908,0.0
49417.0,STARLINK-3154,PAYLOAD,2024-04-22 02:10:02,15.08833457,0.0001501,53.2194,61.0435,99.165,260.9512,2.8838e-05,1.71e-06,0.0,0 STARLINK-3154,1 49417U 21104K   24113.09031163  .00000171  00000-0  28838-4 0  9999,2 49417  53.2194  61.0435 0001501  99.1650 260.9512 15.08833457136220,6917.9,95.438,540.804,538.727,0.0
49417.0,STARLINK-3154,PAYLOAD,2024-04-22 05:20:48,15.08853783,0.0001343,53.2176,60.4438,102.077,258.0373,0.00035056,5.298e-05,0.0,0 STARLINK-3154,1 49417U 21104K   24113.22278259  .00005298  00000-0  35056-3 0  9997,2 49417  53.2176  60.4438 0001343 102.0770 258.0373 15.08853783136246,6917.838,95.437,540.632,538.774,0.0
49417.0,STARLINK-3154,PAYLOAD,2024-04-23 05:11:36,15.08826944,0.0001049,53.2175,55.9792,122.6416,237.4677,0.00026434,3.92e-05,0.0,0 STARLINK-3154,1 49417U 21104K   24114.21639998  .00003920  00000-0  26434-3 0  9998,2 49417  53.2175  55.9792 0001049 122.6416 237.4677 15.08826944136398,6917.92,95.438,540.511,539.06,0.0
49417.0,STARLINK-3154,PAYLOAD,2024-04-24 03:26:59,15.08854873,0.0001182,53.2187,51.8186,84.4074,275.7053,0.00017865,2.558e-05,0.0,0 STARLINK-3154,1 49417U 21104K   24115.14374844  .00002558  00000-0  17865-3 0  9991,2 49417  53.2187  51.8186 0001182  84.4074 275.7053 15.08854873136537,6917.835,95.437,540.518,538.882,0.0
49417.0,STARLINK-3154,PAYLOAD,2024-04-25 04:53:10,15.08843196,0.0001179,53.2182,47.0615,92.2369,267.8758,0.00016694,2.37e-05,0.0,0 STARLINK-3154,1 49417U 21104K   24116.20359152  .00002370  00000-0  16694-3 0  9995,2 49417  53.2182  47.0615 0001179  92.2369 267.8758 15.08843196136693,6917.871,95.437,540.551,538.92,0.0
49417.0,STARLINK-3154,PAYLOAD,2024-04-25 22:22:24,15.08842578,0.0001264,53.2187,43.7878,90.3007,269.813,-5.6891e-05,-1.193e-05,0.0,0 STARLINK-3154,1 49417U 21104K   24116.93223130 -.00001193  00000-0 -56891-4 0  9999,2 49417  53.2187  43.7878 0001264  90.3007 269.8130 15.08842578135693,6917.873,95.437,540.612,538.863,0.0
49417.0,STARLINK-3154,PAYLOAD,2024-04-26 04:43:57,15.08847119,0.0001183,53.219,42.5957,96.1321,263.9806,-2.757e-05,-7.27e-06,0.0,0 STARLINK-3154,1 49417U 21104K   24117.19718902 -.00000727  00000-0 -27570-4 0  9998,2 49417  53.2190  42.5957 0001183  96.1321 263.9806 15.08847119135731,6917.859,95.437,540.542,538.905,0.0
49417.0,STARLINK-3154,PAYLOAD,2024-04-26 22:13:11,15.08842292,0.0001172,53.2182,39.3254,93.1092,267.0034,9.7954e-05,1.272e-05,0.0,0 STARLINK-3154,1 49417U 21104K   24117.92582597  .00001272  00000-0  97954-4 0  9995,2 49417  53.2182  39.3254 0001172  93.1092 267.0034 15.08842292135843,6917.873,95.437,540.549,538.928,0.0
49417.0,STARLINK-3154,PAYLOAD,2024-04-27 04:34:43,15.08851892,0.000131,53.2195,38.1393,99.9159,260.1981,0.00017003,2.42e-05,0.0,0 STARLINK-3154,1 49417U 21104K   24118.19077883  .00002420  00000-0  17003-3 0  9994,2 49417  53.2195  38.1393 0001310  99.9159 260.1981 15.08851892136998,6917.844,95.437,540.615,538.803,0.0
49417.0,STARLINK-3154,PAYLOAD,2024-04-27 18:53:12,15.08834332,0.0001222,53.2191,35.4632,97.4956,262.6175,-1.3781e-05,-5.07e-06,0.0,0 STARLINK-3154,1 49417U 21104K   24118.78695433 -.00000507  00000-0 -13781-4 0  9992,2 49417  53.2191  35.4632 0001222  97.4956 262.6175 15.08834332137083,6917.898,95.438,540.608,538.917,0.0
49417.0,STARLINK-3154,PAYLOAD,2024-04-27 22:04:00,15.08820491,0.000125,53.2184,34.8677,80.1998,279.9135,-0.00012861,-2.333e-05,0.0,0 STARLINK-3154,1 49417U 21104K   24118.91944725 -.00002333  00000-0 -12861-3 0  9994,2 49417  53.2184  34.8677 0001250  80.1998 279.9135 15.08820491135999,6917.94,95.439,540.67,538.94,0.0
49417.0,STARLINK-3154,PAYLOAD,2024-04-27 23:39:23,15.08821218,0.0001228,53.2185,34.5703,80.9068,279.2063,-0.00012782,-2.32e-05,0.0,0 STARLINK-3154,1 49417U 21104K   24118.98568733 -.00002320  00000-0 -12782-3 0  9990,2 49417  53.2185  34.5703 0001228  80.9068 279.2063 15.08821218137115,6917.938,95.439,540.652,538.953,0.0
49417.0,STARLINK-3154,PAYLOAD,2024-04-28 10:47:04,15.08836462,0.0001406,53.2206,32.491,81.9093,278.2059,-5.3773e-05,-1.144e-05,0.0,0 STARLINK-3154,1 49417U 21104K   24119.44935818 -.00001144  00000-0 -53773-4 0  9993,2 49417  53.2206  32.4910 0001406  81.9093 278.2059 15.08836462137181,6917.891,95.438,540.729,538.784,0.0
49417.0,STARLINK-3154,PAYLOAD,2024-04-28 21:54:46,15.08831987,0.0001675,53.2196,30.4135,88.3498,271.7686,2.0407e-05,3.7e-07,0.0,0 STARLINK-3154,1 49417U 21104K   24119.91304360  .00000037  00000-0  20407-4 0  9993,2 49417  53.2196  30.4135 0001675  88.3498 271.7686 15.08831987136140,6917.905,95.438,540.929,538.611,0.0
49417.0,STARLINK-3154,PAYLOAD,2024-04-29 10:37:50,15.08853601,0.0001716,53.221,28.0348,87.2974,272.8215,4.1025e-05,3.65e-06,0.0,0 STARLINK-3154,1 49417U 21104K   24120.44294926  .00000365  00000-0  41025-4 0  9992,2 49417  53.2210  28.0348 0001716  87.2974 272.8215 15.08853601137338,6917.839,95.437,540.891,538.517,0.0
49417.0,STARLINK-3154,PAYLOAD,2024-04-29 21:45:34,15.08825875,0.000227,53.2195,25.951,75.4485,284.6759,0.00017981,2.574e-05,0.0,0 STARLINK-3154,1 49417U 21104K   24120.90664471  .00002574  00000-0  17981-3 0  9996,2 49417  53.2195  25.9510 0002270  75.4485 284.6759 15.08825875136299,6917.924,95.438,541.359,538.218,0.0
49417.0,STARLINK-3154,PAYLOAD,2024-04-30 00:56:20,15.08824145,0.0001541,53.2191,25.359,82.8055,277.3112,0.00017135,2.439e-05,0.0,0 STARLINK-3154,1 49417U 21104K   24121.03912554  .00002439  00000-0  17135-3 0  9990,2 49417  53.2191  25.3590 0001541  82.8055 277.3112 15.08824145137429,6917.929,95.439,540.86,538.728,0.0
49417.0,STARLINK-3154,PAYLOAD,2024-04-30 10:28:40,15.08821741,0.0001527,53.2188,23.5744,80.1116,280.0049,-3.3028e-06,-3.4e-06,0.0,0 STARLINK-3154,1 49417U 21104K   24121.43657657 -.00000340  00000-0 -33028-5 0  9996,2 49417  53.2188  23.5744 0001527  80.1116 280.0049 15.08821741137484,6917.936,95.439,540.858,538.745,0.0
49417.0,STARLINK-3154,PAYLOAD,2024-04-30 21:36:22,15.08828662,0.0001341,53.2176,21.4924,82.6924,277.422,3.4522e-05,2.61e-06,0.0,0 STARLINK-3154,1 49417U 21104K   24121.90025469  .00000261  00000-0  34522-4 0  9997,2 49417  53.2176  21.4924 0001341  82.6924 277.4220 15.08828662136441,6917.915,95.438,540.708,538.852,0.0
49417.0,STARLINK-3154,PAYLOAD,2024-05-01 02:22:30,15.08838278,0.0001397,53.2175,20.5999,79.799,280.316,4.6679e-05,4.55e-06,0.0,0 STARLINK-3154,1 49417U 21104K   24122.09896905  .00000455  00000-0  46679-4 0  9990,2 49417  53.2175  20.5999 0001397  79.7990 280.3160 15.08838278137589,6917.886,95.438,540.717,538.784,0.0
49417.0,STARLINK-3154,PAYLOAD,2024-05-01 10:19:25,15.08852784,0.000152,53.2183,19.1127,78.5314,281.5848,6.954e-05,8.19e-06,0.0,0 STARLINK-3154,1 49417U 21104K   24122.43015810  .00000819  00000-0  69540-4 0  9992,2 49417  53.2183  19.1127 0001520  78.5314 281.5848 15.08852784137630,6917.841,95.437,540.758,538.655,0.0
49417.0,STARLINK-3154,PAYLOAD,2024-05-01 23:02:31,15.08840556,0.0001667,53.2182,16.7342,76.7031,283.4147,9.9742e-05,1.3e-05,0.0,0 STARLINK-3154,1 49417U 21104K   24122.96008478  .00001300  00000-0  99742-4 0  9995,2 49417  53.2182  16.7342 0001667  76.7031 283.4147 15.08840556136602,6917.879,95.438,540.897,538.59,0.0
49417.0,STARLINK-3154,PAYLOAD,2024-05-02 02:13:17,15.08847571,0.0001644,53.2188,16.1381,88.3406,271.7774,0.00013378,1.842e-05,0.0,0 STARLINK-3154,1 49417U 21104K   24123.09255971  .00001842  00000-0  13378-3 0  9993,2 49417  53.2188  16.1381 0001644  88.3406 271.7774 15.08847571137730,6917.857,95.437,540.86,538.585,0.0
49417.0,STARLINK-3154,PAYLOAD,2024-05-02 10:10:12,15.08857076,0.0001747,53.2197,14.6511,75.6437,284.4749,0.00015863,2.239e-05,0.0,0 STARLINK-3154,1 49417U 21104K   24123.42375146  .00002239  00000-0  15863-3 0  9999,2 49417  53.2197  14.6511 0001747  75.6437 284.4749 15.08857076137784,6917.828,95.436,540.902,538.485,0.0
49417.0,STARLINK-3154,PAYLOAD,2024-05-02 21:17:54,15.08843306,0.000177,53.2182,12.5688,83.0189,277.1005,0.00010988,1.461e-05,0.0,0 STARLINK-3154,1 49417U 21104K   24123.88744072  .00001461  00000-0  10988-3 0  9996,2 49417  53.2182  12.5688 0001770  83.0189 277.1005 15.08843306137856,6917.87,95.437,540.96,538.511,0.0
49417.0,STARLINK-3154,PAYLOAD,2024-05-03 10:00:58,15.08861992,0.0001605,53.2171,10.189,89.3023,270.8153,0.0001206,1.633e-05,0.0,0 STARLINK-3154,1 49417U 21104K   24124.41734356  .00001633  00000-0  12060-3 0  9994,2 49417  53.2171  10.1890 0001605  89.3023 270.8153 15.08861992137930,6917.813,95.436,540.788,538.568,0.0
